[{"OBJECT_NAME":"LEMUR-2-ARIANNA","OBJECT_ID":"2025-009CU","EPOCH":"2026-03-05T17:46:24.471264","MEAN_MOTION":15.00793276,"ECCENTRICITY":0.0004484,"INCLINATION":97.7013,"RA_OF_ASC_NODE":147.08,"ARG_OF_PERICENTER":155.5198,"MEAN_ANOMALY":204.6239,"EPHEMERIS_TYPE":0,"CLASSIFICATION_TYPE":"U","NORAD_CAT_ID":62699,"ELEMENT_SET_NO":999,"REV_AT_EPOCH":6203,"BSTAR":0.00081338,"MEAN_MOTION_DOT":0.00010278,"MEAN_MOTION_DDOT":0},{"OBJECT_NAME":"LEMUR-2-ALISIA","OBJECT_ID":"2025-009DB","EPOCH":"2026-03-05T17:42:55.757376","MEAN_MOTION":15.01059198,"ECCENTRICITY":0.0006396,"INCLINATION":97.7061,"RA_OF_ASC_NODE":147.7305,"ARG_OF_PERICENTER":168.5385,"MEAN_ANOMALY":191.5986,"EPHEMERIS_TYPE":0,"CLASSIFICATION_TYPE":"U","NORAD_CAT_ID":62706,"ELEMENT_SET_NO":999,"REV_AT_EPOCH":8463,"BSTAR":0.00080809,"MEAN_MOTION_DOT":0.00010284,"MEAN_MOTION_DDOT":0},{"OBJECT_NAME":"LEMUR-2-ROUNDTRIPPER","OBJECT_ID":"2025-009DG","EPOCH":"2026-03-05T16:44:41.741376","MEAN_MOTION":15.01979624,"ECCENTRICITY":0.0004816,"INCLINATION":97.7305,"RA_OF_ASC_NODE":147.6551,"ARG_OF_PERICENTER":135.0712,"MEAN_ANOMALY":225.0903,"EPHEMERIS_TYPE":0,"CLASSIFICATION_TYPE":"U","NORAD_CAT_ID":62711,"ELEMENT_SET_NO":999,"REV_AT_EPOCH":6208,"BSTAR":0.00086915,"MEAN_MOTION_DOT":0.00011337,"MEAN_MOTION_DDOT":0},{"OBJECT_NAME":"LEMUR-2-MYNAMEISJEFF","OBJECT_ID":"2025-009DH","EPOCH":"2026-03-05T16:42:35.415936","MEAN_MOTION":15.01969507,"ECCENTRICITY":0.0003987,"INCLINATION":97.7353,"RA_OF_ASC_NODE":147.9734,"ARG_OF_PERICENTER":161.551,"MEAN_ANOMALY":198.586,"EPHEMERIS_TYPE":0,"CLASSIFICATION_TYPE":"U","NORAD_CAT_ID":62712,"ELEMENT_SET_NO":999,"REV_AT_EPOCH":6208,"BSTAR":0.00088834,"MEAN_MOTION_DOT":0.00011585,"MEAN_MOTION_DDOT":0},{"OBJECT_NAME":"LEMUR-2-LEIA-PHILIP","OBJECT_ID":"2025-052AN","EPOCH":"2026-03-05T16:05:26.146464","MEAN_MOTION":14.96577034,"ECCENTRICITY":0.0002842,"INCLINATION":97.6965,"RA_OF_ASC_NODE":318.3328,"ARG_OF_PERICENTER":190.9818,"MEAN_ANOMALY":169.1342,"EPHEMERIS_TYPE":0,"CLASSIFICATION_TYPE":"U","NORAD_CAT_ID":63246,"ELEMENT_SET_NO":999,"REV_AT_EPOCH":5318,"BSTAR":0.00067862,"MEAN_MOTION_DOT":7.672e-5,"MEAN_MOTION_DDOT":0},{"OBJECT_NAME":"LEMUR-2-LIA-MARTIN","OBJECT_ID":"2025-052AQ","EPOCH":"2026-03-05T16:36:54.321696","MEAN_MOTION":14.96744608,"ECCENTRICITY":0.0003244,"INCLINATION":97.7008,"RA_OF_ASC_NODE":318.7132,"ARG_OF_PERICENTER":154.2491,"MEAN_ANOMALY":205.8893,"EPHEMERIS_TYPE":0,"CLASSIFICATION_TYPE":"U","NORAD_CAT_ID":63248,"ELEMENT_SET_NO":999,"REV_AT_EPOCH":5319,"BSTAR":0.00067726,"MEAN_MOTION_DOT":7.69e-5,"MEAN_MOTION_DDOT":0},{"OBJECT_NAME":"LEMUR-2-DELOITTE-1","OBJECT_ID":"2025-052BB","EPOCH":"2026-03-05T15:51:54.078048","MEAN_MOTION":14.96744811,"ECCENTRICITY":0.0003273,"INCLINATION":97.7051,"RA_OF_ASC_NODE":318.9945,"ARG_OF_PERICENTER":87.284,"MEAN_ANOMALY":272.8757,"EPHEMERIS_TYPE":0,"CLASSIFICATION_TYPE":"U","NORAD_CAT_ID":63259,"ELEMENT_SET_NO":999,"REV_AT_EPOCH":5320,"BSTAR":0.00062555,"MEAN_MOTION_DOT":7.098e-5,"MEAN_MOTION_DDOT":0},{"OBJECT_NAME":"LEMUR-2-EMERSONROSE","OBJECT_ID":"2025-052BD","EPOCH":"2026-03-05T16:06:22.695264","MEAN_MOTION":14.98172264,"ECCENTRICITY":0.0003193,"INCLINATION":97.7033,"RA_OF_ASC_NODE":319.3559,"ARG_OF_PERICENTER":59.5586,"MEAN_ANOMALY":300.5952,"EPHEMERIS_TYPE":0,"CLASSIFICATION_TYPE":"U","NORAD_CAT_ID":63261,"ELEMENT_SET_NO":999,"REV_AT_EPOCH":5323,"BSTAR":0.00064534,"MEAN_MOTION_DOT":7.6e-5,"MEAN_MOTION_DDOT":0},{"OBJECT_NAME":"LEMUR-2-MARACHE-FRAN","OBJECT_ID":"2025-052BE","EPOCH":"2026-03-05T16:52:47.177184","MEAN_MOTION":14.98825559,"ECCENTRICITY":0.0002342,"INCLINATION":97.6996,"RA_OF_ASC_NODE":319.5779,"ARG_OF_PERICENTER":43.6001,"MEAN_ANOMALY":316.5407,"EPHEMERIS_TYPE":0,"CLASSIFICATION_TYPE":"U","NORAD_CAT_ID":63262,"ELEMENT_SET_NO":999,"REV_AT_EPOCH":5325,"BSTAR":0.00077479,"MEAN_MOTION_DOT":9.294e-5,"MEAN_MOTION_DDOT":0},{"OBJECT_NAME":"LEMUR-2-THEFALCONER","OBJECT_ID":"2025-052BG","EPOCH":"2026-03-05T16:07:52.951296","MEAN_MOTION":14.96453929,"ECCENTRICITY":0.0002595,"INCLINATION":97.6988,"RA_OF_ASC_NODE":318.7378,"ARG_OF_PERICENTER":28.5848,"MEAN_ANOMALY":331.5516,"EPHEMERIS_TYPE":0,"CLASSIFICATION_TYPE":"U","NORAD_CAT_ID":63264,"ELEMENT_SET_NO":999,"REV_AT_EPOCH":5320,"BSTAR":0.0005868,"MEAN_MOTION_DOT":6.604e-5,"MEAN_MOTION_DDOT":0},{"OBJECT_NAME":"LEMUR-2-UNTITLED-SC","OBJECT_ID":"2025-061A","EPOCH":"2026-03-05T11:02:28.142016","MEAN_MOTION":15.12641591,"ECCENTRICITY":0.0017147,"INCLINATION":97.5555,"RA_OF_ASC_NODE":40.6976,"ARG_OF_PERICENTER":262.5509,"MEAN_ANOMALY":97.3774,"EPHEMERIS_TYPE":0,"CLASSIFICATION_TYPE":"U","NORAD_CAT_ID":63351,"ELEMENT_SET_NO":999,"REV_AT_EPOCH":5190,"BSTAR":0.0003723,"MEAN_MOTION_DOT":6.465e-5,"MEAN_MOTION_DDOT":0},{"OBJECT_NAME":"LEMUR-2-ESPERANZA","OBJECT_ID":"2025-061B","EPOCH":"2026-03-05T12:13:14.569824","MEAN_MOTION":15.12717532,"ECCENTRICITY":0.0016738,"INCLINATION":97.5559,"RA_OF_ASC_NODE":40.8168,"ARG_OF_PERICENTER":261.5598,"MEAN_ANOMALY":98.3736,"EPHEMERIS_TYPE":0,"CLASSIFICATION_TYPE":"U","NORAD_CAT_ID":63352,"ELEMENT_SET_NO":999,"REV_AT_EPOCH":5191,"BSTAR":0.00034294,"MEAN_MOTION_DOT":5.961e-5,"MEAN_MOTION_DDOT":0},{"OBJECT_NAME":"LEMUR-2-KREMPEL-BRO2","OBJECT_ID":"2025-061C","EPOCH":"2026-03-05T11:58:58.065888","MEAN_MOTION":15.13121415,"ECCENTRICITY":0.0017765,"INCLINATION":97.5604,"RA_OF_ASC_NODE":41.2084,"ARG_OF_PERICENTER":253.6217,"MEAN_ANOMALY":106.306,"EPHEMERIS_TYPE":0,"CLASSIFICATION_TYPE":"U","NORAD_CAT_ID":63353,"ELEMENT_SET_NO":999,"REV_AT_EPOCH":5192,"BSTAR":0.00036574,"MEAN_MOTION_DOT":6.437e-5,"MEAN_MOTION_DDOT":0},{"OBJECT_NAME":"LEMUR-2-THERMORAPTOR","OBJECT_ID":"2025-061D","EPOCH":"2026-03-05T14:50:27.879072","MEAN_MOTION":15.1320098,"ECCENTRICITY":0.0017554,"INCLINATION":97.5613,"RA_OF_ASC_NODE":41.3837,"ARG_OF_PERICENTER":252.1652,"MEAN_ANOMALY":107.7665,"EPHEMERIS_TYPE":0,"CLASSIFICATION_TYPE":"U","NORAD_CAT_ID":63354,"ELEMENT_SET_NO":999,"REV_AT_EPOCH":5194,"BSTAR":0.00041677,"MEAN_MOTION_DOT":7.361e-5,"MEAN_MOTION_DDOT":0},{"OBJECT_NAME":"LEMUR-2-NEUROSPICY","OBJECT_ID":"2025-061E","EPOCH":"2026-03-05T15:56:05.862336","MEAN_MOTION":15.13315168,"ECCENTRICITY":0.0015198,"INCLINATION":97.5541,"RA_OF_ASC_NODE":41.136,"ARG_OF_PERICENTER":255.804,"MEAN_ANOMALY":104.1503,"EPHEMERIS_TYPE":0,"CLASSIFICATION_TYPE":"U","NORAD_CAT_ID":63355,"ELEMENT_SET_NO":999,"REV_AT_EPOCH":5195,"BSTAR":0.00039478,"MEAN_MOTION_DOT":6.985e-5,"MEAN_MOTION_DDOT":0},{"OBJECT_NAME":"LEMUR-2-TILLINFINITY","OBJECT_ID":"2025-061F","EPOCH":"2026-03-05T19:19:29.232480","MEAN_MOTION":15.1389251,"ECCENTRICITY":0.0016632,"INCLINATION":97.5527,"RA_OF_ASC_NODE":41.4944,"ARG_OF_PERICENTER":242.4787,"MEAN_ANOMALY":117.4755,"EPHEMERIS_TYPE":0,"CLASSIFICATION_TYPE":"U","NORAD_CAT_ID":63356,"ELEMENT_SET_NO":999,"REV_AT_EPOCH":5199,"BSTAR":0.0003884,"MEAN_MOTION_DOT":6.988e-5,"MEAN_MOTION_DDOT":0}]
